[
    {
        "Altitude(m)": 556376.4609446882,
        "Argument of Periapsis(deg)": 0.0,
        "Eccentricity": 0.0,
        "Inclination(deg)": 53.0,
        "Latitude(deg)": 37.24562238728023,
        "Longitude(deg)": -139.70477451962498,
        "Mean Anomaly(deg)": 130.9091,
        "RAAN(deg)": 175.0,
        "Satellite Name": "Starlink Shell 1 778",
        "Satellite Number": 778,
        "Semi-Major Axis(m)": 6931778.249405717,
        "Time(s)": 0
    },
    {
        "Altitude(m)": 556293.3311990828,
        "Argument of Periapsis(deg)": 0.00034857847951123687,
        "Eccentricity": 0.0,
        "Inclination(deg)": 53.0,
        "Latitude(deg)": 36.83139868499705,
        "Longitude(deg)": -139.1563142547859,
        "Mean Anomaly(deg)": 131.53593120355671,
        "RAAN(deg)": 174.99948122992254,
        "Satellite Name": "Starlink Shell 1 778",
        "Satellite Number": 778,
        "Semi-Major Axis(m)": 6931778.249405717,
        "Time(s)": 10
    },
    {
        "Altitude(m)": 556210.3976073983,
        "Argument of Periapsis(deg)": 0.0006971569590224737,
        "Eccentricity": 0.0,
        "Inclination(deg)": 53.0,
        "Latitude(deg)": 36.41425190090837,
        "Longitude(deg)": -138.61419463065508,
        "Mean Anomaly(deg)": 132.16276240711346,
        "RAAN(deg)": 174.99896245984505,
        "Satellite Name": "Starlink Shell 1 778",
        "Satellite Number": 778,
        "Semi-Major Axis(m)": 6931778.249405717,
        "Time(s)": 20
    },
    {
        "Altitude(m)": 556127.7157282502,
        "Argument of Periapsis(deg)": 0.0010457354385337105,
        "Eccentricity": 0.0,
        "Inclination(deg)": 53.0,
        "Latitude(deg)": 35.99425564151435,
        "Longitude(deg)": -138.07829586861214,
        "Mean Anomaly(deg)": 132.78959361067015,
        "RAAN(deg)": 174.99844368976758,
        "Satellite Name": "Starlink Shell 1 778",
        "Satellite Number": 778,
        "Semi-Major Axis(m)": 6931778.249405717,
        "Time(s)": 30
    },
    {
        "Altitude(m)": 556045.3412011905,
        "Argument of Periapsis(deg)": 0.0013943139180449475,
        "Eccentricity": 0.0,
        "Inclination(deg)": 53.0,
        "Latitude(deg)": 35.5714818735245,
        "Longitude(deg)": -137.5484981147663,
        "Mean Anomaly(deg)": 133.41642481422687,
        "RAAN(deg)": 174.99792491969012,
        "Satellite Name": "Starlink Shell 1 778",
        "Satellite Number": 778,
        "Semi-Major Axis(m)": 6931778.249405717,
        "Time(s)": 40
    },
    {
        "Altitude(m)": 555963.3297180913,
        "Argument of Periapsis(deg)": 0.0017428923975561844,
        "Eccentricity": 0.0,
        "Inclination(deg)": 53.0,
        "Latitude(deg)": 35.146000953662195,
        "Longitude(deg)": -137.02468256284288,
        "Mean Anomaly(deg)": 134.04325601778356,
        "RAAN(deg)": 174.99740614961263,
        "Satellite Name": "Starlink Shell 1 778",
        "Satellite Number": 778,
        "Semi-Major Axis(m)": 6931778.249405717,
        "Time(s)": 50
    },
    {
        "Altitude(m)": 555881.7369944433,
        "Argument of Periapsis(deg)": 0.002091470877067421,
        "Eccentricity": 0.0,
        "Inclination(deg)": 53.0,
        "Latitude(deg)": 34.717881659294335,
        "Longitude(deg)": -136.50673105390626,
        "Mean Anomaly(deg)": 134.67008722134034,
        "RAAN(deg)": 174.99688737953517,
        "Satellite Name": "Starlink Shell 1 778",
        "Satellite Number": 778,
        "Semi-Major Axis(m)": 6931778.249405717,
        "Time(s)": 60
    },
    {
        "Altitude(m)": 555800.6187405989,
        "Argument of Periapsis(deg)": 0.0024400493565786582,
        "Eccentricity": 0.0,
        "Inclination(deg)": 53.0,
        "Latitude(deg)": 34.287191219745075,
        "Longitude(deg)": -135.99452566636555,
        "Mean Anomaly(deg)": 135.296918424897,
        "RAAN(deg)": 174.9963686094577,
        "Satellite Name": "Starlink Shell 1 778",
        "Satellite Number": 778,
        "Semi-Major Axis(m)": 6931778.249405717,
        "Time(s)": 70
    },
    {
        "Altitude(m)": 555720.0306329725,
        "Argument of Periapsis(deg)": 0.002788627836089895,
        "Eccentricity": 0.0,
        "Inclination(deg)": 53.0,
        "Latitude(deg)": 33.853995348160396,
        "Longitude(deg)": -135.4879498096865,
        "Mean Anomaly(deg)": 135.92374962845375,
        "RAAN(deg)": 174.9958498393802,
        "Satellite Name": "Starlink Shell 1 778",
        "Satellite Number": 778,
        "Semi-Major Axis(m)": 6931778.249405717,
        "Time(s)": 80
    },
    {
        "Altitude(m)": 555640.0282852205,
        "Argument of Periapsis(deg)": 0.0031372063156011316,
        "Eccentricity": 0.0,
        "Inclination(deg)": 53.0,
        "Latitude(deg)": 33.4183582737973,
        "Longitude(deg)": -134.9868877966071,
        "Mean Anomaly(deg)": 136.5505808320104,
        "RAAN(deg)": 174.99533106930275,
        "Satellite Name": "Starlink Shell 1 778",
        "Satellite Number": 778,
        "Semi-Major Axis(m)": 6931778.249405717,
        "Time(s)": 90
    },
    {
        "Altitude(m)": 555560.6672193808,
        "Argument of Periapsis(deg)": 0.0034857847951123688,
        "Eccentricity": 0.0,
        "Inclination(deg)": 53.0,
        "Latitude(deg)": 32.98034277462661,
        "Longitude(deg)": -134.4912244072448,
        "Mean Anomaly(deg)": 137.17741203556713,
        "RAAN(deg)": 174.9948122992253,
        "Satellite Name": "Starlink Shell 1 778",
        "Satellite Number": 778,
        "Semi-Major Axis(m)": 6931778.249405717,
        "Time(s)": 100
    },
    {
        "Altitude(m)": 555482.0028370494,
        "Argument of Periapsis(deg)": 0.003834363274623606,
        "Eccentricity": 0.0,
        "Inclination(deg)": 53.0,
        "Latitude(deg)": 32.54001021015,
        "Longitude(deg)": -134.00084595847127,
        "Mean Anomaly(deg)": 137.80424323912388,
        "RAAN(deg)": 174.9942935291478,
        "Satellite Name": "Starlink Shell 1 778",
        "Satellite Number": 778,
        "Semi-Major Axis(m)": 6931778.249405717,
        "Time(s)": 110
    },
    {
        "Altitude(m)": 555404.0903905225,
        "Argument of Periapsis(deg)": 0.004182941754134842,
        "Eccentricity": 0.0,
        "Inclination(deg)": 53.0,
        "Latitude(deg)": 32.09742055433229,
        "Longitude(deg)": -133.51563985328715,
        "Mean Anomaly(deg)": 138.43107444268057,
        "RAAN(deg)": 174.99377475907033,
        "Satellite Name": "Starlink Shell 1 778",
        "Satellite Number": 778,
        "Semi-Major Axis(m)": 6931778.249405717,
        "Time(s)": 120
    },
    {
        "Altitude(m)": 555326.9849540207,
        "Argument of Periapsis(deg)": 0.004531520233646079,
        "Eccentricity": 0.0,
        "Inclination(deg)": 53.0,
        "Latitude(deg)": 31.652632428566946,
        "Longitude(deg)": -133.03549412353064,
        "Mean Anomaly(deg)": 139.05790564623732,
        "RAAN(deg)": 174.99325598899287,
        "Satellite Name": "Starlink Shell 1 778",
        "Satellite Number": 778,
        "Semi-Major Axis(m)": 6931778.249405717,
        "Time(s)": 130
    },
    {
        "Altitude(m)": 555250.74139489,
        "Argument of Periapsis(deg)": 0.0048800987131573164,
        "Eccentricity": 0.0,
        "Inclination(deg)": 53.0,
        "Latitude(deg)": 31.205703134601716,
        "Longitude(deg)": -132.56029847923264,
        "Mean Anomaly(deg)": 139.68473684979398,
        "RAAN(deg)": 174.99273721891538,
        "Satellite Name": "Starlink Shell 1 778",
        "Satellite Number": 778,
        "Semi-Major Axis(m)": 6931778.249405717,
        "Time(s)": 140
    },
    {
        "Altitude(m)": 555175.4143449398,
        "Argument of Periapsis(deg)": 0.005228677192668553,
        "Eccentricity": 0.0,
        "Inclination(deg)": 53.0,
        "Latitude(deg)": 30.756688687348557,
        "Longitude(deg)": -132.08994383929084,
        "Mean Anomaly(deg)": 140.31156805335073,
        "RAAN(deg)": 174.99221844883792,
        "Satellite Name": "Starlink Shell 1 778",
        "Satellite Number": 778,
        "Semi-Major Axis(m)": 6931778.249405717,
        "Time(s)": 150
    },
    {
        "Altitude(m)": 555101.0581717677,
        "Argument of Periapsis(deg)": 0.00557725567217979,
        "Eccentricity": 0.0,
        "Inclination(deg)": 53.0,
        "Latitude(deg)": 30.305643847520923,
        "Longitude(deg)": -131.62432185673586,
        "Mean Anomaly(deg)": 140.93839925690747,
        "RAAN(deg)": 174.99169967876045,
        "Satellite Name": "Starlink Shell 1 778",
        "Satellite Number": 778,
        "Semi-Major Axis(m)": 6931778.249405717,
        "Time(s)": 160
    },
    {
        "Altitude(m)": 555027.7269502337,
        "Argument of Periapsis(deg)": 0.0059258341516910265,
        "Eccentricity": 0.0,
        "Inclination(deg)": 53.0,
        "Latitude(deg)": 29.85262215404308,
        "Longitude(deg)": -131.16332595184,
        "Mean Anomaly(deg)": 141.56523046046416,
        "RAAN(deg)": 174.99118090868296,
        "Satellite Name": "Starlink Shell 1 778",
        "Satellite Number": 778,
        "Semi-Major Axis(m)": 6931778.249405717,
        "Time(s)": 170
    },
    {
        "Altitude(m)": 554955.4744340047,
        "Argument of Periapsis(deg)": 0.006274412631202263,
        "Eccentricity": 0.0,
        "Inclination(deg)": 53.0,
        "Latitude(deg)": 29.397675956179466,
        "Longitude(deg)": -130.7068508276829,
        "Mean Anomaly(deg)": 142.19206166402088,
        "RAAN(deg)": 174.9906621386055,
        "Satellite Name": "Starlink Shell 1 778",
        "Satellite Number": 778,
        "Semi-Major Axis(m)": 6931778.249405717,
        "Time(s)": 180
    }
]